NORAD_CAT_ID,OBJECT_NAME,OBJECT_TYPE,EPOCH,MEAN_MOTION,ECCENTRICITY,INCLINATION,RA_OF_ASC_NODE,ARG_OF_PERICENTER,MEAN_ANOMALY,BSTAR,MEAN_MOTION_DOT,MEAN_MOTION_DDOT,TLE_LINE0,TLE_LINE1,TLE_LINE2,SEMIMAJOR_AXIS,PERIOD,APOGEE,PERIGEE,DECAYED
52357.0,STARLINK-3821,PAYLOAD,2023-03-01 15:47:58,15.08808929,0.0001449,53.2137,115.3119,83.3089,276.8068,0.00056783,8.753e-05,0.0,0 STARLINK-3821,1 52357U 22045AC  23060.65831040  .00008753  00000-0  56783-3 0  9998,2 52357  53.2137 115.3119 0001449  83.3089 276.8068 15.08808929 49117,6917.975,95.44,540.843,538.838,0.0
52357.0,STARLINK-3821,PAYLOAD,2023-03-01 20:34:07,15.08823353,0.0001485,53.213,114.4201,62.2548,297.8594,0.0018352,0.00029027,0.0,0 STARLINK-3821,1 52357U 22045AC  23060.85703451  .00029027  00000-0  18352-2 0  9990,2 52357  53.2130 114.4201 0001485  62.2548 297.8594 15.08823353 49146,6917.931,95.439,540.824,538.769,0.0
52357.0,STARLINK-3821,PAYLOAD,2023-03-02 15:38:44,15.08877961,0.0001563,53.2129,110.8513,62.8851,297.23,0.0020401,0.00032364,0.0,0 STARLINK-3821,1 52357U 22045AC  23061.65190745  .00032364  00000-0  20401-2 0  9991,2 52357  53.2129 110.8513 0001563  62.8851 297.2300 15.08877961 49266,6917.764,95.435,540.711,538.548,0.0
52357.0,STARLINK-3821,PAYLOAD,2023-03-03 09:07:58,15.08889925,0.0001649,53.2126,107.5801,58.1805,301.9348,0.0022833,0.00036288,0.0,0 STARLINK-3821,1 52357U 22045AC  23062.38053714  .00036288  00000-0  22833-2 0  9996,2 52357  53.2126 107.5801 0001649  58.1805 301.9348 15.08889925 49378,6917.728,95.434,540.734,538.452,0.0
52357.0,STARLINK-3821,PAYLOAD,2023-03-03 12:18:44,15.08898891,0.000153,53.2129,106.9853,68.5889,291.5266,0.0023638,0.00037594,0.0,0 STARLINK-3821,1 52357U 22045AC  23062.51301212  .00037594  00000-0  23638-2 0  9995,2 52357  53.2129 106.9853 0001530  68.5889 291.5266 15.08898891 49394,6917.7,95.434,540.624,538.507,0.0
52357.0,STARLINK-3821,PAYLOAD,2023-03-03 20:15:39,15.088646,0.0001576,53.2129,105.4982,72.7959,287.3205,0.00020259,2.94e-05,0.0,0 STARLINK-3821,1 52357U 22045AC  23062.84421054  .00002940  00000-0  20259-3 0  9992,2 52357  53.2129 105.4982 0001576  72.7959 287.3205 15.08864600 49449,6917.805,95.436,540.76,538.58,0.0
52357.0,STARLINK-3821,PAYLOAD,2023-03-04 02:37:12,15.08852667,0.000217,53.2138,104.3111,76.4631,283.6603,0.00030503,4.571e-05,0.0,0 STARLINK-3821,1 52357U 22045AC  23063.10917376  .00004571  00000-0  30503-3 0  9994,2 52357  53.2138 104.3111 0002170  76.4631 283.6603 15.08852667 49485,6917.842,95.437,541.208,538.205,0.0
52357.0,STARLINK-3821,PAYLOAD,2023-03-04 08:58:44,15.0885168,0.0001591,53.2133,103.1186,84.9888,275.1286,0.00036758,5.569e-05,0.0,0 STARLINK-3821,1 52357U 22045AC  23063.37413107  .00005569  00000-0  36758-3 0  9992,2 52357  53.2133 103.1186 0001591  84.9888 275.1286 15.08851680 49525,6917.845,95.437,540.81,538.609,0.0
52357.0,STARLINK-3821,PAYLOAD,2023-03-04 20:06:27,15.0883592,0.000123,53.2136,101.0372,98.7047,261.4084,0.00050992,7.836e-05,0.0,0 STARLINK-3821,1 52357U 22045AC  23063.83781361  .00007836  00000-0  50992-3 0  9998,2 52357  53.2136 101.0372 0001230  98.7047 261.4084 15.08835920 49592,6917.893,95.438,540.609,538.907,0.0
52357.0,STARLINK-3821,PAYLOAD,2023-03-05 07:14:09,15.08841891,0.0001346,53.2132,98.9556,101.1887,258.9256,0.00067466,0.00010466,0.0,0 STARLINK-3821,1 52357U 22045AC  23064.30149639  .00010466  00000-0  67466-3 0  9994,2 52357  53.2132  98.9556 0001346 101.1887 258.9256 15.08841891 49669,6917.875,95.437,540.671,538.808,0.0
52357.0,STARLINK-3821,PAYLOAD,2023-03-06 05:29:33,15.08854719,0.0001472,53.2135,94.793,94.2266,265.8894,0.00094777,0.00014834,0.0,0 STARLINK-3821,1 52357U 22045AC  23065.22885740  .00014834  00000-0  94777-3 0  9994,2 52357  53.2135  94.7930 0001472  94.2266 265.8894 15.08854719 49809,6917.835,95.437,540.719,538.682,0.0
52357.0,STARLINK-3821,PAYLOAD,2023-03-06 13:26:28,15.08868321,0.0001496,53.2141,93.3049,98.2145,261.9017,0.0010197,0.0001599,0.0,0 STARLINK-3821,1 52357U 22045AC  23065.56005096  .00015990  00000-0  10197-2 0  9996,2 52357  53.2141  93.3049 0001496  98.2145 261.9017 15.08868321 49851,6917.794,95.436,540.694,538.624,0.0
52357.0,STARLINK-3821,PAYLOAD,2023-03-07 00:34:11,15.08830939,0.0001296,53.2137,91.2233,101.1238,258.99,-0.0002677,-4.545e-05,0.0,0 STARLINK-3821,1 52357U 22045AC  23066.02373905 -.00004545  00000-0 -26770-3 0  9996,2 52357  53.2137  91.2233 0001296 101.1238 258.9900 15.08830939 49922,6917.908,95.438,540.67,538.877,0.0
52357.0,STARLINK-3821,PAYLOAD,2023-03-07 08:31:06,15.0884301,0.0001632,53.2141,89.735,121.5569,238.5583,0.00045251,6.922e-05,0.0,0 STARLINK-3821,1 52357U 22045AC  23066.35493832  .00006922  00000-0  45251-3 0  9998,2 52357  53.2141  89.7350 0001632 121.5569 238.5583 15.08843010 49976,6917.871,95.437,540.865,538.607,0.0
52357.0,STARLINK-3821,PAYLOAD,2023-03-07 18:03:25,15.08834278,0.0001786,53.2138,87.9515,88.7269,271.3928,0.00067534,0.00010475,0.0,0 STARLINK-3821,1 52357U 22045AC  23066.75238321  .00010475  00000-0  67534-3 0  9998,2 52357  53.2138  87.9515 0001786  88.7269 271.3928 15.08834278 50039,6917.898,95.438,540.998,538.527,0.0
52357.0,STARLINK-3821,PAYLOAD,2023-03-08 17:54:12,15.08849882,0.0001114,53.2133,83.4905,111.656,248.455,0.00088647,0.00013852,0.0,0 STARLINK-3821,1 52357U 22045AC  23067.74598260  .00013852  00000-0  88647-3 0  9999,2 52357  53.2133  83.4905 0001114 111.6560 248.4550 15.08849882 50182,6917.85,95.437,540.486,538.945,0.0
52357.0,STARLINK-3821,PAYLOAD,2023-03-09 06:37:17,15.0885737,0.0001289,53.2137,81.1088,91.8488,268.2652,0.00070766,0.00010998,0.0,0 STARLINK-3821,1 52357U 22045AC  23068.27590061  .00010998  00000-0  70766-3 0  9990,2 52357  53.2137  81.1088 0001289  91.8488 268.2652 15.08857370 50267,6917.827,95.436,540.584,538.801,0.0
52357.0,STARLINK-3821,PAYLOAD,2023-03-09 17:44:59,15.08854996,0.0001821,53.2134,79.0295,85.5406,274.5794,0.0012463,0.00019611,0.0,0 STARLINK-3821,1 52357U 22045AC  23068.73958233  .00019611  00000-0  12463-2 0  9990,2 52357  53.2134  79.0295 0001821  85.5406 274.5794 15.08854996 50338,6917.835,95.437,540.959,538.44,0.0
52357.0,STARLINK-3821,PAYLOAD,2023-03-10 04:52:41,15.08857313,0.0001308,53.2136,76.9485,94.9919,265.1222,0.0017475,0.00027646,0.0,0 STARLINK-3821,1 52357U 22045AC  23069.20325895  .00027646  00000-0  17475-2 0  9990,2 52357  53.2136  76.9485 0001308  94.9919 265.1222 15.08857313 50406,6917.827,95.436,540.597,538.788,0.0
52357.0,STARLINK-3821,PAYLOAD,2023-03-10 17:35:46,15.08838299,0.0001733,53.2142,74.5687,78.2723,281.8463,0.00046878,7.18e-05,0.0,0 STARLINK-3821,1 52357U 22045AC  23069.73318257  .00007180  00000-0  46878-3 0  9993,2 52357  53.2142  74.5687 0001733  78.2723 281.8463 15.08838299 50483,6917.886,95.438,540.949,538.552,0.0
52357.0,STARLINK-3821,PAYLOAD,2023-03-11 06:18:52,15.08849873,0.000307,53.2142,72.1908,76.0771,284.0562,0.0017671,0.00027956,0.0,0 STARLINK-3821,1 52357U 22045AC  23070.26311011  .00027956  00000-0  17671-2 0  9995,2 52357  53.2142  72.1908 0003070  76.0771 284.0562 15.08849873 50562,6917.85,95.437,541.839,537.591,0.0
52357.0,STARLINK-3821,PAYLOAD,2023-03-11 23:48:07,15.08848257,0.0001382,53.2138,68.9188,74.8039,285.3106,0.0012433,0.00019559,0.0,0 STARLINK-3821,1 52357U 22045AC  23070.99175343  .00019559  00000-0  12433-2 0  9992,2 52357  53.2138  68.9188 0001382  74.8039 285.3106 15.08848257 50672,6917.855,95.437,540.676,538.764,0.0
52357.0,STARLINK-3821,PAYLOAD,2023-03-12 10:55:48,15.08875039,0.0001432,53.2148,66.8373,76.2099,283.9053,0.001572,0.00024843,0.0,0 STARLINK-3821,1 52357U 22045AC  23071.45542602  .00024843  00000-0  15720-2 0  9994,2 52357  53.2148  66.8373 0001432  76.2099 283.9053 15.08875039 50745,6917.773,95.435,540.629,538.648,0.0
52357.0,STARLINK-3821,PAYLOAD,2023-03-13 10:46:35,15.08867374,0.0001679,53.2164,62.3769,79.2684,280.8497,0.00131,0.00020638,0.0,0 STARLINK-3821,1 52357U 22045AC  23072.44902145  .00020638  00000-0  13100-2 0  9994,2 52357  53.2164  62.3769 0001679  79.2684 280.8497 15.08867374 50896,6917.797,95.436,540.823,538.5,0.0
52357.0,STARLINK-3821,PAYLOAD,2023-03-14 04:15:50,15.08823574,0.0001306,53.2169,59.1055,101.6706,258.4433,0.0013941,0.00021959,0.0,0 STARLINK-3821,1 52357U 22045AC  23073.17766830  .00021959  00000-0  13941-2 0  9994,2 52357  53.2169  59.1055 0001306 101.6706 258.4433 15.08823574 51004,6917.931,95.439,540.699,538.892,0.0
52357.0,STARLINK-3821,PAYLOAD,2023-03-14 09:01:59,15.08840013,0.0001362,53.2169,58.2134,88.5443,271.5705,0.0014485,0.0002284,0.0,0 STARLINK-3821,1 52357U 22045AC  23073.37638839  .00022840  00000-0  14485-2 0  9997,2 52357  53.2169  58.2134 0001362  88.5443 271.5705 15.08840013 51033,6917.88,95.438,540.688,538.803,0.0
52357.0,STARLINK-3821,PAYLOAD,2023-03-14 15:23:32,15.08843961,0.0001404,53.2174,57.0241,70.8705,289.2439,0.0010463,0.00016405,0.0,0 STARLINK-3821,1 52357U 22045AC  23073.64135040  .00016405  00000-0  10463-2 0  9995,2 52357  53.2174  57.0241 0001404  70.8705 289.2439 15.08843961 51076,6917.868,95.437,540.705,538.762,0.0
52357.0,STARLINK-3821,PAYLOAD,2023-03-15 05:42:00,15.08870447,0.0001033,53.2152,54.3495,88.2184,271.8927,0.0019727,0.00031273,0.0,0 STARLINK-3821,1 52357U 22045AC  23074.23750152  .00031273  00000-0  19727-2 0  9990,2 52357  53.2152  54.3495 0001033  88.2184 271.8927 15.08870447 51163,6917.787,95.436,540.367,538.938,0.0
52357.0,STARLINK-3821,PAYLOAD,2023-03-15 10:28:08,15.08896303,0.0001203,53.2156,53.4571,87.2336,272.8794,0.001979,0.00031397,0.0,0 STARLINK-3821,1 52357U 22045AC  23074.43621285  .00031397  00000-0  19790-2 0  9993,2 52357  53.2156  53.4571 0001203  87.2336 272.8794 15.08896303 51194,6917.708,95.434,540.405,538.741,0.0
52357.0,STARLINK-3821,PAYLOAD,2023-03-16 05:32:46,15.08853463,0.0001024,53.2155,49.8887,122.7538,237.3553,0.00049065,7.532e-05,0.0,0 STARLINK-3821,1 52357U 22045AC  23075.23109681  .00007532  00000-0  49065-3 0  9996,2 52357  53.2155  49.8887 0001024 122.7538 237.3553 15.08853463 51315,6917.839,95.437,540.413,538.996,0.0
